STARLINK-36799          
1 67958U 26037AC  26064.58335648 -.01515587  66777-3 -37221-2 0  9990
2 67958  42.9995 223.7165 0001517 276.4645 350.4138 15.95242489  2532
STARLINK-36834          
1 67959U 26037AD  26064.58335648 -.01532899  68358-3 -37149-2 0  9992
2 67959  42.9996 223.7018 0001378 269.2854   3.2129 15.95491398  2536
STARLINK-36841          
1 67960U 26037AE  26064.58335648 -.01535547  68497-3 -37443-2 0  9998
2 67960  42.9995 223.7093 0001292 270.5400 358.9949 15.95378069  2536
STARLINK-36912          
1 67961U 26038A   26064.58335648 -.01507359  70449-3 -29156-2 0  9992
2 67961  97.2764  74.5366 0001256 102.8926 139.7936 16.00482368  2535
STARLINK-36881          
1 67962U 26038B   26064.58335648 -.01501756  70022-3 -28923-2 0  9996
2 67962  97.2763  74.5373 0001221 110.0359 134.4767 16.00556873  2533
STARLINK-36357          
1 67963U 26038C   26064.58335648 -.01506657  70641-3 -28621-2 0  9994
2 67963  97.2760  74.5395 0001229 108.1029 141.2230 16.00799222  2533
STARLINK-36349          
1 67964U 26038D   26064.58335648 -.01514715  71252-3 -28963-2 0  9997
2 67964  97.2758  74.5380 0001283 109.4469 137.4673 16.00685239  2537
STARLINK-36806          
1 67965U 26038E   26064.58335648 -.01507096  70790-3 -28407-2 0  9991
2 67965  97.2755  74.5404 0001201 104.8045 147.3100 16.00936039  2533
STARLINK-36820          
1 67966U 26038F   26064.58335648 -.01491882  69554-3 -27944-2 0  9998
2 67966  97.2755  74.5416 0001178 109.2651 145.1928 16.01043604  2534
STARLINK-36819          
1 67967U 26038G   26064.58335648 -.01497413  70136-3 -27845-2 0  9993
2 67967  97.2754  74.5426 0001245 102.3354 154.6383 16.01170979  2530
STARLINK-36812          
1 67968U 26038H   26064.58335648 -.01494032  69924-3 -27619-2 0  9990
2 67968  97.2750  74.5432 0001185 100.8873 158.2576 16.01273422  2537
STARLINK-36709          
1 67969U 26038J   26064.58335648 -.01482764  69146-3 -27017-2 0  9998
2 67969  97.2750  74.5454 0001146  98.3078 165.9844 16.01523119  2531
STARLINK-36319          
1 67970U 26038K   26064.58335648 -.01484085  69159-3 -27240-2 0  9990
2 67970  97.2750  74.5443 0001216  93.5253 168.1741 16.01395731  2506
STARLINK-36710          
1 67971U 26038L   26064.58335648 -.01458616  67180-3 -26353-2 0  9998
2 67971  97.2748  74.5470 0001090 108.3957 159.0386 16.01666932  2531
STARLINK-36894          
1 67972U 26038M   26064.58335648 -.01472591  68491-3 -26393-2 0  9997
2 67972  97.2744  74.5481 0001173  90.8869 179.1282 16.01807307  2530
STARLINK-36900          
1 67973U 26038N   26064.58335648 -.01463089  67872-3 -25838-2 0  9995
2 67973  97.2744  74.5500 0001095 103.5402 171.6441 16.02061581  2532
